ICEYE-X50               
1 63255U 25052AX  26192.98400860  .00001330  00000+0  12566-3 0  9999
2 63255  97.6863  84.4003 0003396 108.7210 251.4380 14.95358457 72352
ICEYE-X51               
1 63257U 25052AZ  26192.59202994  .00002631  00000+0  21149-3 0  9998
2 63257  97.7607  87.6429 0002073  68.4125 291.7319 15.00893440 72460
ICEYE-X54               
1 64570U 25135AU  26192.92899238  .00001976  00000+0  18733-3 0  9995
2 64570  97.7743 307.1151 0001824 192.3506 167.7670 14.94720698 57590
ICEYE-X52               
1 64572U 25135AW  26192.92449602  .00001253  00000+0  12400-3 0  9996
2 64572  97.7766 306.9045 0000986 200.9078 159.2102 14.93644889 57574
ICEYE-X56               
1 64574U 25135AY  26192.91866422  .00001835  00000+0  16991-3 0  9995
2 64574  97.7762 307.6868 0001132 210.1508 149.9648 14.95749044 57626
ICEYE-X57               
1 64578U 25135BC  26192.93447495  .00002775  00000+0  22300-3 0  9991
2 64578  97.8012 309.4771 0002132  59.6776 300.4659 15.00867651 57736
ICEYE-X55               
1 64581U 25135BF  26192.92525052  .00002085  00000+0  19428-3 0  9991
2 64581  97.7762 307.5210 0001816 252.6603 107.4419 14.95349244 57612
ICEYE-X53               
1 64584U 25135BJ  26192.95837262  .00000111  00000+0  13464-4 0  9999
2 64584  97.7364 309.6321 0001775 166.5404 193.5867 15.00880871 57790
ICEYE-X58               
1 66751U 25276CP  26192.71830430  .00001473  00000+0  77252-4 0  9994
2 66751  97.4198 265.6682 0001934 232.1195 127.9863 15.17296564 34133
ICEYE-X59               
1 66752U 25276CQ  26192.74534672  .00002884  00000+0  23200-3 0  9997
2 66752  97.4383 262.9933 0000713 139.5292 220.5986 15.00733485 33956
